start=new Date('2022-11-28T00:00:00.000Z').valueOf();
sats=[{"REF_FRAME":"TEME","OBJECT_NAME":"STARLINK-2066","ARG_OF_PERICENTER":"82.1347","RCS_SIZE":"LARGE","ELEMENT_SET_NO":"999","CLASSIFICATION_TYPE":"U","EPHEMERIS_TYPE":"0","OBJECT_ID":"2021-012BF","MEAN_ANOMALY":"277.9783","PERIAPSIS":"546.380","MEAN_MOTION_DOT":"-0.00001000","TLE_LINE2":"2 47673  53.0547  30.1772 0001240  82.1347 277.9783 15.06391678 99675","BSTAR":"-0.00004829100000","ECCENTRICITY":"0.00012400","MEAN_MOTION":"15.06391678","LAUNCH_DATE":"2021-02-16","INCLINATION":"53.0547","FILE":"3671921","PERIOD":"95.593","SEMIMAJOR_AXIS":"6925.374","DECAY_DATE":null,"SITE":"AFETR","MEAN_MOTION_DDOT":"0.0000000000000","TLE_LINE1":"1 47673U 21012BF  22331.57517481 -.00001000  00000-0 -48291-4 0  9993","NORAD_CAT_ID":"47673","RA_OF_ASC_NODE":"30.1772","COUNTRY_CODE":"US","GP_ID":"218990602","REV_AT_EPOCH":"9967","MEAN_ELEMENT_THEORY":"SGP4","APOAPSIS":"548.098","TIME_SYSTEM":"UTC","EPOCH":"2022-11-27T13:48:15.103584","CENTER_NAME":"EARTH","OBJECT_TYPE":"PAYLOAD"},{"REF_FRAME":"TEME","OBJECT_NAME":"STARLINK-2067","RCS_SIZE":"LARGE","ARG_OF_PERICENTER":"53.5326","ELEMENT_SET_NO":"999","OBJECT_ID":"2021-012BG","EPHEMERIS_TYPE":"0","CLASSIFICATION_TYPE":"U","MEAN_ANOMALY":"306.5835","PERIAPSIS":"545.906","MEAN_MOTION_DOT":"0.00001856","TLE_LINE2":"2 47674  53.0573  30.6960 0001864  53.5326 306.5835 15.06405572 99665","BSTAR":"0.00014342000000","MEAN_MOTION":"15.06405572","ECCENTRICITY":"0.00018640","INCLINATION":"53.0573","LAUNCH_DATE":"2021-02-16","FILE":"3671616","PERIOD":"95.592","SEMIMAJOR_AXIS":"6925.331","DECAY_DATE":null,"SITE":"AFETR","MEAN_MOTION_DDOT":"0.0000000000000","TLE_LINE1":"1 47674U 21012BG  22331.45625926  .00001856  00000-0  14342-3 0  9991","NORAD_CAT_ID":"47674","RA_OF_ASC_NODE":"30.6960","COUNTRY_CODE":"US","GP_ID":"218956350","MEAN_ELEMENT_THEORY":"SGP4","APOAPSIS":"548.487","REV_AT_EPOCH":"9966","TIME_SYSTEM":"UTC","EPOCH":"2022-11-27T10:57:00.800064","OBJECT_TYPE":"PAYLOAD","CENTER_NAME":"EARTH"},{"ECCENTRICITY":"0.00014690","MEAN_MOTION":"15.06391576","LAUNCH_DATE":"2021-02-16","INCLINATION":"53.0562","TLE_LINE2":"2 47675  53.0562  29.8334 0001469  69.9782 290.1365 15.06391576 99694","MEAN_MOTION_DOT":"-0.00002001","BSTAR":"-0.00011549000000","PERIAPSIS":"546.222","MEAN_ANOMALY":"290.1365","ELEMENT_SET_NO":"999","CLASSIFICATION_TYPE":"U","EPHEMERIS_TYPE":"0","OBJECT_ID":"2021-012BH","ARG_OF_PERICENTER":"69.9782","RCS_SIZE":"LARGE","REF_FRAME":"TEME","OBJECT_NAME":"STARLINK-2078","CENTER_NAME":"EARTH","OBJECT_TYPE":"PAYLOAD","REV_AT_EPOCH":"9969","MEAN_ELEMENT_THEORY":"SGP4","APOAPSIS":"548.257","EPOCH":"2022-11-27T15:34:24.365568","TIME_SYSTEM":"UTC","RA_OF_ASC_NODE":"29.8334","COUNTRY_CODE":"US","GP_ID":"218989101","TLE_LINE1":"1 47675U 21012BH  22331.64889312 -.00002001  00000-0 -11549-3 0  9995","NORAD_CAT_ID":"47675","SEMIMAJOR_AXIS":"6925.374","DECAY_DATE":null,"MEAN_MOTION_DDOT":"0.0000000000000","SITE":"AFETR","PERIOD":"95.593","FILE":"3671921"},{"PERIOD":"95.593","FILE":"3671921","SEMIMAJOR_AXIS":"6925.376","DECAY_DATE":null,"SITE":"AFETR","MEAN_MOTION_DDOT":"0.0000000000000","TLE_LINE1":"1 47676U 21012BJ  22331.64428984 -.00001241  00000-0 -64441-4 0  9995","NORAD_CAT_ID":"47676","RA_OF_ASC_NODE":"279.8471","GP_ID":"218989851","COUNTRY_CODE":"US","REV_AT_EPOCH":"10121","MEAN_ELEMENT_THEORY":"SGP4","APOAPSIS":"548.366","TIME_SYSTEM":"UTC","EPOCH":"2022-11-27T15:27:46.642176","CENTER_NAME":"EARTH","OBJECT_TYPE":"PAYLOAD","REF_FRAME":"TEME","OBJECT_NAME":"STARLINK-2083","ARG_OF_PERICENTER":"59.8818","RCS_SIZE":"LARGE","ELEMENT_SET_NO":"999","EPHEMERIS_TYPE":"0","CLASSIFICATION_TYPE":"U","OBJECT_ID":"2021-012BJ","MEAN_ANOMALY":"300.2332","PERIAPSIS":"546.116","TLE_LINE2":"2 47676  53.0557 279.8471 0001624  59.8818 300.2332 15.06391099101218","MEAN_MOTION_DOT":"-0.00001241","BSTAR":"-0.00006444100000","ECCENTRICITY":"0.00016240","MEAN_MOTION":"15.06391099","LAUNCH_DATE":"2021-02-16","INCLINATION":"53.0557"},{"PERIOD":"95.593","FILE":"3671921","MEAN_MOTION_DDOT":"0.0000000000000","DECAY_DATE":null,"SITE":"AFETR","SEMIMAJOR_AXIS":"6925.378","NORAD_CAT_ID":"47677","TLE_LINE1":"1 47677U 21012BK  22331.63504522 -.00000416  00000-0 -90040-5 0  9996","COUNTRY_CODE":"US","GP_ID":"218990103","RA_OF_ASC_NODE":"49.8924","EPOCH":"2022-11-27T15:14:27.907008","TIME_SYSTEM":"UTC","MEAN_ELEMENT_THEORY":"SGP4","APOAPSIS":"548.308","REV_AT_EPOCH":"9940","OBJECT_TYPE":"PAYLOAD","CENTER_NAME":"EARTH","OBJECT_NAME":"STARLINK-2090","REF_FRAME":"TEME","RCS_SIZE":"LARGE","ARG_OF_PERICENTER":"52.0635","OBJECT_ID":"2021-012BK","CLASSIFICATION_TYPE":"U","EPHEMERIS_TYPE":"0","ELEMENT_SET_NO":"999","MEAN_ANOMALY":"308.0493","PERIAPSIS":"546.178","BSTAR":"-0.00000900400000","TLE_LINE2":"2 47677  53.0578  49.8924 0001538  52.0635 308.0493 15.06390391 99401","MEAN_MOTION_DOT":"-0.00000416","INCLINATION":"53.0578","LAUNCH_DATE":"2021-02-16","MEAN_MOTION":"15.06390391","ECCENTRICITY":"0.00015380"},{"MEAN_ANOMALY":"291.6744","OBJECT_ID":"2021-012BM","CLASSIFICATION_TYPE":"U","EPHEMERIS_TYPE":"0","ELEMENT_SET_NO":"999","RCS_SIZE":"LARGE","ARG_OF_PERICENTER":"68.4408","OBJECT_NAME":"STARLINK-2095","REF_FRAME":"TEME","INCLINATION":"53.0563","LAUNCH_DATE":"2021-02-16","MEAN_MOTION":"15.06396160","ECCENTRICITY":"0.00015340","BSTAR":"-0.00008315200000","MEAN_MOTION_DOT":"-0.00001520","TLE_LINE2":"2 47679  53.0563  50.3714 0001534  68.4408 291.6744 15.06396160 99402","PERIAPSIS":"546.163","NORAD_CAT_ID":"47679","TLE_LINE1":"1 47679U 21012BM  22331.53184683 -.00001520  00000-0 -83152-4 0  9991","DECAY_DATE":null,"SITE":"AFETR","MEAN_MOTION_DDOT":"0.0000000000000","SEMIMAJOR_AXIS":"6925.360","FILE":"3671921","PERIOD":"95.592","OBJECT_TYPE":"PAYLOAD","CENTER_NAME":"EARTH","TIME_SYSTEM":"UTC","EPOCH":"2022-11-27T12:45:51.566112","MEAN_ELEMENT_THEORY":"SGP4","APOAPSIS":"548.288","REV_AT_EPOCH":"9940","GP_ID":"218990353","COUNTRY_CODE":"US","RA_OF_ASC_NODE":"50.3714"},{"PERIAPSIS":"546.009","MEAN_MOTION_DOT":"0.00000265","TLE_LINE2":"2 47722  53.0530 174.2130 0001702  70.8579 289.2594 15.06408418 97444","BSTAR":"0.00003665700000","ECCENTRICITY":"0.00017020","MEAN_MOTION":"15.06408418","LAUNCH_DATE":"2021-03-04","INCLINATION":"53.0530","REF_FRAME":"TEME","OBJECT_NAME":"STARLINK-2068","ARG_OF_PERICENTER":"70.8579","RCS_SIZE":"LARGE","ELEMENT_SET_NO":"999","EPHEMERIS_TYPE":"0","CLASSIFICATION_TYPE":"U","OBJECT_ID":"2021-017A","MEAN_ANOMALY":"289.2594","RA_OF_ASC_NODE":"174.2130","COUNTRY_CODE":"US","GP_ID":"218990857","REV_AT_EPOCH":"9744","APOAPSIS":"548.366","MEAN_ELEMENT_THEORY":"SGP4","TIME_SYSTEM":"UTC","EPOCH":"2022-11-27T20:09:47.066976","CENTER_NAME":"EARTH","OBJECT_TYPE":"PAYLOAD","PERIOD":"95.592","FILE":"3671921","SEMIMAJOR_AXIS":"6925.323","SITE":"AFETR","DECAY_DATE":null,"MEAN_MOTION_DDOT":"0.0000000000000","TLE_LINE1":"1 47722U 21017A   22331.84012809  .00000265  00000-0  36657-4 0  9990","NORAD_CAT_ID":"47722"},{"SEMIMAJOR_AXIS":"6925.366","DECAY_DATE":null,"SITE":"AFETR","MEAN_MOTION_DDOT":"0.0000000000000","TLE_LINE1":"1 47723U 21017B   22331.78158822 -.00001044  00000-0 -51212-4 0  9992","NORAD_CAT_ID":"47723","PERIOD":"95.593","FILE":"3671921","MEAN_ELEMENT_THEORY":"SGP4","APOAPSIS":"548.437","REV_AT_EPOCH":"9831","TIME_SYSTEM":"UTC","EPOCH":"2022-11-27T18:45:29.222208","OBJECT_TYPE":"PAYLOAD","CENTER_NAME":"EARTH","RA_OF_ASC_NODE":"109.2479","GP_ID":"218989106","COUNTRY_CODE":"US","ELEMENT_SET_NO":"999","OBJECT_ID":"2021-017B","CLASSIFICATION_TYPE":"U","EPHEMERIS_TYPE":"0","MEAN_ANOMALY":"257.3998","REF_FRAME":"TEME","OBJECT_NAME":"STARLINK-2107","RCS_SIZE":"LARGE","ARG_OF_PERICENTER":"102.7185","TLE_LINE2":"2 47723  53.0558 109.2479 0001741 102.7185 257.3998 15.06394310 98316","MEAN_MOTION_DOT":"-0.00001044","BSTAR":"-0.00005121200000","MEAN_MOTION":"15.06394310","ECCENTRICITY":"0.00017410","INCLINATION":"53.0558","LAUNCH_DATE":"2021-03-04","PERIAPSIS":"546.025"},{"PERIAPSIS":"546.194","TLE_LINE2":"2 47724  53.0553 109.6791 0001455  66.8207 293.2936 15.06403740 98263","MEAN_MOTION_DOT":"0.00000772","BSTAR":"0.00007070800000","ECCENTRICITY":"0.00014550","MEAN_MOTION":"15.06403740","LAUNCH_DATE":"2021-03-04","INCLINATION":"53.0553","REF_FRAME":"TEME","OBJECT_NAME":"STARLINK-2116","ARG_OF_PERICENTER":"66.8207","RCS_SIZE":"LARGE","ELEMENT_SET_NO":"999","CLASSIFICATION_TYPE":"U","EPHEMERIS_TYPE":"0","OBJECT_ID":"2021-017C","MEAN_ANOMALY":"293.2936","RA_OF_ASC_NODE":"109.6791","GP_ID":"218989856","COUNTRY_CODE":"US","REV_AT_EPOCH":"9826","MEAN_ELEMENT_THEORY":"SGP4","APOAPSIS":"548.210","EPOCH":"2022-11-27T16:27:29.019456","TIME_SYSTEM":"UTC","CENTER_NAME":"EARTH","OBJECT_TYPE":"PAYLOAD","PERIOD":"95.592","FILE":"3671921","SEMIMAJOR_AXIS":"6925.337","DECAY_DATE":null,"MEAN_MOTION_DDOT":"0.0000000000000","SITE":"AFETR","TLE_LINE1":"1 47724U 21017C   22331.68575254  .00000772  00000-0  70708-4 0  9990","NORAD_CAT_ID":"47724"},{"PERIAPSIS":"546.008","MEAN_MOTION_DOT":"-0.00000006","TLE_LINE2":"2 47725  53.0535 178.9234 0001780  64.6501 295.4672 15.06391007 97328","BSTAR":"0.00001847700000","MEAN_MOTION":"15.06391007","ECCENTRICITY":"0.00017800","INCLINATION":"53.0535","LAUNCH_DATE":"2021-03-04","REF_FRAME":"TEME","OBJECT_NAME":"STARLINK-2125","RCS_SIZE":"LARGE","ARG_OF_PERICENTER":"64.6501","ELEMENT_SET_NO":"999","OBJECT_ID":"2021-017D","EPHEMERIS_TYPE":"0","CLASSIFICATION_TYPE":"U","MEAN_ANOMALY":"295.4672","RA_OF_ASC_NODE":"178.9234","GP_ID":"218990108","COUNTRY_CODE":"US","MEAN_ELEMENT_THEORY":"SGP4","APOAPSIS":"548.474","REV_AT_EPOCH":"9732","EPOCH":"2022-11-27T20:27:39.694464","TIME_SYSTEM":"UTC","OBJECT_TYPE":"PAYLOAD","CENTER_NAME":"EARTH","FILE":"3671921","PERIOD":"95.593","SEMIMAJOR_AXIS":"6925.376","DECAY_DATE":null,"MEAN_MOTION_DDOT":"0.0000000000000","SITE":"AFETR","TLE_LINE1":"1 47725U 21017D   22331.85254276 -.00000006  00000-0  18477-4 0  9994","NORAD_CAT_ID":"47725"}];
